IRIDIUM 116             
1 43072U 17083C   25212.62864751  .00000049  00000+0  10388-4 0  9992
2 43072  86.3943  96.0339 0002077  92.0772 268.0662 14.34217914398224
IRIDIUM 130             
1 43073U 17083D   25212.80623964  .00000062  00000+0  15132-4 0  9999
2 43073  86.3953  96.2039 0001860  92.5935 267.5474 14.34217940398190
IRIDIUM 151             
1 43074U 17083E   25212.71110084  .00000140  00000+0  43103-4 0  9990
2 43074  86.3947  96.0501 0002130  92.1239 268.0200 14.34218289398202
IRIDIUM 134             
1 43075U 17083F   25212.60961931  .00000041  00000+0  75485-5 0  9993
2 43075  86.3947  96.0960 0001874  89.7730 270.3680 14.34217810398155
IRIDIUM 137             
1 43076U 17083G   25212.62230589  .00000031  00000+0  40675-5 0  9996
2 43076  86.3949  96.1772 0002483  98.4727 261.6750 14.34217764398227
IRIDIUM 141             
1 43077U 17083H   25212.82526803  .00000120  00000+0  35682-4 0  9996
2 43077  86.3944  95.9410 0002235  81.5637 278.5812 14.34217713398250
IRIDIUM 153             
1 43078U 17083J   25212.63790854  .00000127  00000+0  38276-4 0  9994
2 43078  86.3925  64.4739 0002139  75.4107 284.7326 14.34217421399337
IRIDIUM 131             
1 43079U 17083K   25212.60327752  .00000008  00000+0 -41311-5 0  9999
2 43079  86.3951  96.1985 0002183  83.7127 276.4317 14.34217550398155
